[{"OBJECT_NAME":"ONEWEB-0288","OBJECT_ID":"2021-075D","EPOCH":"2026-04-18T04:08:31.739712","MEAN_MOTION":13.12443424,"ECCENTRICITY":0.0001551,"INCLINATION":87.9003,"RA_OF_ASC_NODE":2.5779,"ARG_OF_PERICENTER":78.4,"MEAN_ANOMALY":281.7303,"EPHEMERIS_TYPE":0,"CLASSIFICATION_TYPE":"U","NORAD_CAT_ID":49078,"ELEMENT_SET_NO":999,"REV_AT_EPOCH":22731,"BSTAR":0.00047597000000000004,"MEAN_MOTION_DOT":1.84e-06,"MEAN_MOTION_DDOT":0.0},{"OBJECT_NAME":"ONEWEB-0289","OBJECT_ID":"2021-075E","EPOCH":"2026-04-18T05:10:40.590048","MEAN_MOTION":13.17647586,"ECCENTRICITY":0.0001842,"INCLINATION":87.9194,"RA_OF_ASC_NODE":17.7938,"ARG_OF_PERICENTER":66.2144,"MEAN_ANOMALY":293.9181,"EPHEMERIS_TYPE":0,"CLASSIFICATION_TYPE":"U","NORAD_CAT_ID":49079,"ELEMENT_SET_NO":999,"REV_AT_EPOCH":22630,"BSTAR":0.00012317,"MEAN_MOTION_DOT":6.1e-07,"MEAN_MOTION_DDOT":0.0},{"OBJECT_NAME":"ONEWEB-0290","OBJECT_ID":"2021-075F","EPOCH":"2026-04-18T04:32:01.744512","MEAN_MOTION":13.17650763,"ECCENTRICITY":0.0001915,"INCLINATION":87.9193,"RA_OF_ASC_NODE":17.769,"ARG_OF_PERICENTER":62.4709,"MEAN_ANOMALY":297.6617,"EPHEMERIS_TYPE":0,"CLASSIFICATION_TYPE":"U","NORAD_CAT_ID":49080,"ELEMENT_SET_NO":999,"REV_AT_EPOCH":22571,"BSTAR":0.00021514,"MEAN_MOTION_DOT":9.6e-07,"MEAN_MOTION_DDOT":0.0},{"OBJECT_NAME":"ONEWEB-0291","OBJECT_ID":"2021-075G","EPOCH":"2026-04-18T04:10:07.005216","MEAN_MOTION":13.17648048,"ECCENTRICITY":0.0001476,"INCLINATION":87.9196,"RA_OF_ASC_NODE":17.7804,"ARG_OF_PERICENTER":75.0733,"MEAN_ANOMALY":285.0562,"EPHEMERIS_TYPE":0,"CLASSIFICATION_TYPE":"U","NORAD_CAT_ID":49081,"ELEMENT_SET_NO":999,"REV_AT_EPOCH":22570,"BSTAR":-0.0003376,"MEAN_MOTION_DOT":-1.18e-06,"MEAN_MOTION_DDOT":0.0},{"OBJECT_NAME":"ONEWEB-0293","OBJECT_ID":"2021-075H","EPOCH":"2026-04-18T04:46:34.912416","MEAN_MOTION":13.1764782,"ECCENTRICITY":0.0001825,"INCLINATION":87.9186,"RA_OF_ASC_NODE":17.7829,"ARG_OF_PERICENTER":74.5957,"MEAN_ANOMALY":285.5377,"EPHEMERIS_TYPE":0,"CLASSIFICATION_TYPE":"U","NORAD_CAT_ID":49082,"ELEMENT_SET_NO":999,"REV_AT_EPOCH":22573,"BSTAR":0.00020438000000000002,"MEAN_MOTION_DOT":9.2e-07,"MEAN_MOTION_DDOT":0.0},{"OBJECT_NAME":"ONEWEB-0294","OBJECT_ID":"2021-075J","EPOCH":"2026-04-18T02:28:30.362016","MEAN_MOTION":13.12441572,"ECCENTRICITY":0.0001762,"INCLINATION":87.9008,"RA_OF_ASC_NODE":2.5946,"ARG_OF_PERICENTER":67.9844,"MEAN_ANOMALY":292.1472,"EPHEMERIS_TYPE":0,"CLASSIFICATION_TYPE":"U","NORAD_CAT_ID":49083,"ELEMENT_SET_NO":999,"REV_AT_EPOCH":22669,"BSTAR":-0.00028112,"MEAN_MOTION_DOT":-8.8e-07,"MEAN_MOTION_DDOT":0.0},{"OBJECT_NAME":"ONEWEB-0295","OBJECT_ID":"2021-075K","EPOCH":"2026-04-18T02:56:01.201632","MEAN_MOTION":13.17648563,"ECCENTRICITY":0.0001454,"INCLINATION":87.9185,"RA_OF_ASC_NODE":17.8025,"ARG_OF_PERICENTER":78.4704,"MEAN_ANOMALY":281.6591,"EPHEMERIS_TYPE":0,"CLASSIFICATION_TYPE":"U","NORAD_CAT_ID":49084,"ELEMENT_SET_NO":999,"REV_AT_EPOCH":22568,"BSTAR":5.2529000000000005e-05,"MEAN_MOTION_DOT":3.3e-07,"MEAN_MOTION_DDOT":0.0},{"OBJECT_NAME":"ONEWEB-0296","OBJECT_ID":"2021-075L","EPOCH":"2026-04-18T03:49:00.293952","MEAN_MOTION":13.12441507,"ECCENTRICITY":0.000143,"INCLINATION":87.901,"RA_OF_ASC_NODE":2.5887,"ARG_OF_PERICENTER":76.4678,"MEAN_ANOMALY":283.661,"EPHEMERIS_TYPE":0,"CLASSIFICATION_TYPE":"U","NORAD_CAT_ID":49085,"ELEMENT_SET_NO":999,"REV_AT_EPOCH":22670,"BSTAR":0.001377,"MEAN_MOTION_DOT":5.08e-06,"MEAN_MOTION_DDOT":0.0},{"OBJECT_NAME":"ONEWEB-0297","OBJECT_ID":"2021-075M","EPOCH":"2026-04-18T02:43:07.873248","MEAN_MOTION":13.12442486,"ECCENTRICITY":0.0001692,"INCLINATION":87.8999,"RA_OF_ASC_NODE":2.6168,"ARG_OF_PERICENTER":80.5733,"MEAN_ANOMALY":279.5587,"EPHEMERIS_TYPE":0,"CLASSIFICATION_TYPE":"U","NORAD_CAT_ID":49086,"ELEMENT_SET_NO":999,"REV_AT_EPOCH":22730,"BSTAR":-0.0015702,"MEAN_MOTION_DOT":-5.52e-06,"MEAN_MOTION_DDOT":0.0},{"OBJECT_NAME":"ONEWEB-0298","OBJECT_ID":"2021-075N","EPOCH":"2026-04-18T03:02:18.310848","MEAN_MOTION":13.17649873,"ECCENTRICITY":0.0001802,"INCLINATION":87.9185,"RA_OF_ASC_NODE":17.7989,"ARG_OF_PERICENTER":83.7065,"MEAN_ANOMALY":276.4272,"EPHEMERIS_TYPE":0,"CLASSIFICATION_TYPE":"U","NORAD_CAT_ID":49087,"ELEMENT_SET_NO":999,"REV_AT_EPOCH":22571,"BSTAR":-0.00015382000000000001,"MEAN_MOTION_DOT":-4.7e-07,"MEAN_MOTION_DDOT":0.0},{"OBJECT_NAME":"ONEWEB-0299","OBJECT_ID":"2021-075P","EPOCH":"2026-04-18T03:04:31.060128","MEAN_MOTION":13.17647379,"ECCENTRICITY":0.0001672,"INCLINATION":87.9198,"RA_OF_ASC_NODE":17.7732,"ARG_OF_PERICENTER":82.1726,"MEAN_ANOMALY":277.9596,"EPHEMERIS_TYPE":0,"CLASSIFICATION_TYPE":"U","NORAD_CAT_ID":49088,"ELEMENT_SET_NO":999,"REV_AT_EPOCH":22569,"BSTAR":0.00032011,"MEAN_MOTION_DOT":1.37e-06,"MEAN_MOTION_DDOT":0.0},{"OBJECT_NAME":"ONEWEB-0300","OBJECT_ID":"2021-075Q","EPOCH":"2026-04-18T02:32:09.621024","MEAN_MOTION":13.12442794,"ECCENTRICITY":0.0001917,"INCLINATION":87.9011,"RA_OF_ASC_NODE":2.5908,"ARG_OF_PERICENTER":90.9086,"MEAN_ANOMALY":269.2262,"EPHEMERIS_TYPE":0,"CLASSIFICATION_TYPE":"U","NORAD_CAT_ID":49089,"ELEMENT_SET_NO":999,"REV_AT_EPOCH":22732,"BSTAR":-0.00083197,"MEAN_MOTION_DOT":-2.87e-06,"MEAN_MOTION_DDOT":0.0},{"OBJECT_NAME":"ONEWEB-0301","OBJECT_ID":"2021-075R","EPOCH":"2026-04-18T03:58:46.695936","MEAN_MOTION":13.12441676,"ECCENTRICITY":0.0002009,"INCLINATION":87.9004,"RA_OF_ASC_NODE":2.5788,"ARG_OF_PERICENTER":87.7945,"MEAN_ANOMALY":272.3414,"EPHEMERIS_TYPE":0,"CLASSIFICATION_TYPE":"U","NORAD_CAT_ID":49090,"ELEMENT_SET_NO":999,"REV_AT_EPOCH":22669,"BSTAR":0.00098888,"MEAN_MOTION_DOT":3.68e-06,"MEAN_MOTION_DDOT":0.0},{"OBJECT_NAME":"ONEWEB-0302","OBJECT_ID":"2021-075S","EPOCH":"2026-04-18T03:39:14.910624","MEAN_MOTION":13.12441899,"ECCENTRICITY":0.0001653,"INCLINATION":87.9007,"RA_OF_ASC_NODE":2.5914,"ARG_OF_PERICENTER":69.3525,"MEAN_ANOMALY":290.778,"EPHEMERIS_TYPE":0,"CLASSIFICATION_TYPE":"U","NORAD_CAT_ID":49091,"ELEMENT_SET_NO":999,"REV_AT_EPOCH":22667,"BSTAR":0.0013688,"MEAN_MOTION_DOT":5.05e-06,"MEAN_MOTION_DDOT":0.0},{"OBJECT_NAME":"ONEWEB-0304","OBJECT_ID":"2021-075T","EPOCH":"2026-04-18T04:17:25.322784","MEAN_MOTION":13.17647041,"ECCENTRICITY":0.0001692,"INCLINATION":87.9188,"RA_OF_ASC_NODE":17.7912,"ARG_OF_PERICENTER":79.9507,"MEAN_ANOMALY":280.1815,"EPHEMERIS_TYPE":0,"CLASSIFICATION_TYPE":"U","NORAD_CAT_ID":49092,"ELEMENT_SET_NO":999,"REV_AT_EPOCH":22567,"BSTAR":3.9938e-05,"MEAN_MOTION_DOT":2.8e-07,"MEAN_MOTION_DDOT":0.0},{"OBJECT_NAME":"ONEWEB-0305","OBJECT_ID":"2021-075U","EPOCH":"2026-04-18T04:07:41.301984","MEAN_MOTION":13.17649585,"ECCENTRICITY":0.0001435,"INCLINATION":87.9186,"RA_OF_ASC_NODE":17.7723,"ARG_OF_PERICENTER":86.1084,"MEAN_ANOMALY":274.0212,"EPHEMERIS_TYPE":0,"CLASSIFICATION_TYPE":"U","NORAD_CAT_ID":49093,"ELEMENT_SET_NO":999,"REV_AT_EPOCH":22570,"BSTAR":0.00024361,"MEAN_MOTION_DOT":1.07e-06,"MEAN_MOTION_DDOT":0.0},{"OBJECT_NAME":"ONEWEB-0308","OBJECT_ID":"2021-075V","EPOCH":"2026-04-18T03:29:29.363136","MEAN_MOTION":13.12442825,"ECCENTRICITY":0.0001786,"INCLINATION":87.9008,"RA_OF_ASC_NODE":2.5853,"ARG_OF_PERICENTER":79.0113,"MEAN_ANOMALY":281.1216,"EPHEMERIS_TYPE":0,"CLASSIFICATION_TYPE":"U","NORAD_CAT_ID":49094,"ELEMENT_SET_NO":999,"REV_AT_EPOCH":22668,"BSTAR":0.0010724,"MEAN_MOTION_DOT":3.99e-06,"MEAN_MOTION_DDOT":0.0},{"OBJECT_NAME":"ONEWEB-0309","OBJECT_ID":"2021-075W","EPOCH":"2026-04-18T04:12:33.503328","MEAN_MOTION":13.1765104,"ECCENTRICITY":0.0001661,"INCLINATION":87.9184,"RA_OF_ASC_NODE":17.7852,"ARG_OF_PERICENTER":65.8639,"MEAN_ANOMALY":294.2667,"EPHEMERIS_TYPE":0,"CLASSIFICATION_TYPE":"U","NORAD_CAT_ID":49095,"ELEMENT_SET_NO":999,"REV_AT_EPOCH":22567,"BSTAR":0.00020299,"MEAN_MOTION_DOT":9.2e-07,"MEAN_MOTION_DDOT":0.0},{"OBJECT_NAME":"ONEWEB-0310","OBJECT_ID":"2021-075X","EPOCH":"2026-04-18T03:51:27.574848","MEAN_MOTION":13.12442482,"ECCENTRICITY":0.0001785,"INCLINATION":87.8998,"RA_OF_ASC_NODE":2.6095,"ARG_OF_PERICENTER":78.2493,"MEAN_ANOMALY":281.8836,"EPHEMERIS_TYPE":0,"CLASSIFICATION_TYPE":"U","NORAD_CAT_ID":49096,"ELEMENT_SET_NO":999,"REV_AT_EPOCH":22731,"BSTAR":0.0012963,"MEAN_MOTION_DOT":4.79e-06,"MEAN_MOTION_DDOT":0.0},{"OBJECT_NAME":"ONEWEB-0311","OBJECT_ID":"2021-075Y","EPOCH":"2026-04-18T04:22:16.778496","MEAN_MOTION":13.17647877,"ECCENTRICITY":0.000155,"INCLINATION":87.9195,"RA_OF_ASC_NODE":17.7803,"ARG_OF_PERICENTER":91.7807,"MEAN_ANOMALY":268.3502,"EPHEMERIS_TYPE":0,"CLASSIFICATION_TYPE":"U","NORAD_CAT_ID":49097,"ELEMENT_SET_NO":999,"REV_AT_EPOCH":22572,"BSTAR":-0.00016266,"MEAN_MOTION_DOT":-5e-07,"MEAN_MOTION_DDOT":0.0},{"OBJECT_NAME":"ONEWEB-0312","OBJECT_ID":"2021-075Z","EPOCH":"2026-04-18T02:54:47.277792","MEAN_MOTION":13.17651981,"ECCENTRICITY":0.0001496,"INCLINATION":87.9187,"RA_OF_ASC_NODE":17.8067,"ARG_OF_PERICENTER":76.6355,"MEAN_ANOMALY":283.4943,"EPHEMERIS_TYPE":0,"CLASSIFICATION_TYPE":"U","NORAD_CAT_ID":49098,"ELEMENT_SET_NO":999,"REV_AT_EPOCH":22569,"BSTAR":7.4183e-05,"MEAN_MOTION_DOT":4.2e-07,"MEAN_MOTION_DDOT":0.0},{"OBJECT_NAME":"ONEWEB-0313","OBJECT_ID":"2021-075AA","EPOCH":"2026-04-18T04:51:14.425056","MEAN_MOTION":13.17647064,"ECCENTRICITY":0.0001778,"INCLINATION":87.9188,"RA_OF_ASC_NODE":17.7975,"ARG_OF_PERICENTER":81.9571,"MEAN_ANOMALY":278.1763,"EPHEMERIS_TYPE":0,"CLASSIFICATION_TYPE":"U","NORAD_CAT_ID":49099,"ELEMENT_SET_NO":999,"REV_AT_EPOCH":22569,"BSTAR":0.00033547,"MEAN_MOTION_DOT":1.43e-06,"MEAN_MOTION_DDOT":0.0},{"OBJECT_NAME":"ONEWEB-0314","OBJECT_ID":"2021-075AB","EPOCH":"2026-04-18T04:02:50.448480","MEAN_MOTION":13.17647922,"ECCENTRICITY":0.0001435,"INCLINATION":87.9193,"RA_OF_ASC_NODE":17.7699,"ARG_OF_PERICENTER":76.7532,"MEAN_ANOMALY":283.376,"EPHEMERIS_TYPE":0,"CLASSIFICATION_TYPE":"U","NORAD_CAT_ID":49100,"ELEMENT_SET_NO":999,"REV_AT_EPOCH":22566,"BSTAR":0.00021019,"MEAN_MOTION_DOT":9.4e-07,"MEAN_MOTION_DDOT":0.0}]